MOLNIYA 3-3             
1 08425U 75105A   17323.57158485  .99999999  10136-4  82334-3 0  9996
2 08425  61.0737  68.5254 0314960 283.9369  96.8050 15.97065126308942
